    PJ96R020  2011 10 14.5666  2.603400  0.311023  333.3801   40.0868    2.5998  20140315  11.5  4.0  P/1996 R2 (Lagerkvist)                                   NK   1615
    PJ97T030  2015 05  8.3491  4.225926  0.364144  334.0187   63.1415    4.8469  20140315  13.0  2.0  P/1997 T3 (Lagerkvist-Carsenty)                          MPC 35205
    PJ98Q54P  2015 12 25.9682  1.885284  0.551500   30.6446  341.6181   17.6490  20140315  15.0  2.0  P/1998 QP54 (LONEOS-Tucker)                              CCO    16
    PJ98V24S  2018 01 19.4433  3.432052  0.242377  245.1536  159.0860    5.0222  20140315  13.0  2.0  P/1998 VS24 (LINEAR)                                     MPC 75703
    PJ99XC0N  2017 06 11.2241  3.296946  0.212490  161.8469  285.3343    5.0292  20140315  13.5  2.0  P/1999 XN120 (Catalina)                                  MPC 75704
    PK00Q46J  2014 12 20.4600  1.889057  0.674500  222.1505  158.0909    4.4258  20140315  14.0  2.0  P/2000 QJ46 (LINEAR)                                     MPC 55521
    PK01B50B  2014 09  3.6160  2.362672  0.587802  193.4528  351.1921   10.3650  20140315  13.0  4.0  P/2001 BB50 (LINEAR-NEAT)                                MPC 75704
    PK01F010  2017 05  7.3302  4.186287  0.356558   80.5647   92.7031   19.0683  20140315   8.5  4.0  P/2001 F1 (NEAT)                                         MPC 48380
    PK01Q110  2014 04 23.1057  1.954378  0.433418  207.3958  144.9193   19.8467  20140315  15.0  4.0  P/2001 Q11 (NEAT)                                        MPC 69416
    CK02V94Q  2006 02  8.0266  6.783028  0.965032   99.9811   34.9643   70.5540  20140315   9.5  2.0  C/2002 VQ94 (LINEAR)                                     MPC 75007
    PK03U030  2014 10 15.4024  2.487601  0.509221  356.9989  348.0258    7.0032  20140315  12.0  4.0  P/2003 U3 (NEAT)                                         MPC 75705
    PK04A010  2004 09  8.8438  5.449656  0.312631   21.4774  124.9450   10.5727  20140315   6.5  4.0  P/2004 A1 (LONEOS)                                       MPC 82312
    PK04FE0Y  2015 07 21.1760  4.061782  0.171163  241.4889  326.7887    2.1367  20140315  12.5  2.0  P/2004 FY140 (LINEAR)                                    MPC 54823
    PK05J05Q  2014 05 29.9804  0.825900  0.693418  222.7407   95.8077    5.6916  20140315  17.5  4.0  P/2005 JQ5 (Catalina)                                    NK   1329
    PK05L010  2013 11 24.4508  3.159387  0.207459  149.7420  138.2629    7.7317  20140315   9.5  4.0  P/2005 L1 (McNaught)                                     MPC 74246
    PK05R25V  2015 10 27.2959  3.583236  0.168521  191.5771  246.8693    9.8976  20140315   9.5  4.0  P/2005 RV25 (LONEOS-Christensen)                         MPC 55978
    PK05SL6B  2007 02 14.3092  3.798676  0.465211   83.4576    1.5259   24.0693  20140315  12.0  2.0  P/2005 SB216 (LONEOS)                                    MPC 75706
    PK06F010  2018 03 15.7818  4.117641  0.118440  185.9559  124.7594   21.2812  20140315   8.0  4.0  P/2006 F1 (Kowalski)                                     MPC 75707
    CK06S030  2012 04 15.5337  5.128583  1.002840  140.0367   38.3676  166.0279  20140315   2.0  4.0  C/2006 S3 (LONEOS)                                       MPEC 2014-E86
    CK06S030  2012 04 15.5337  5.128583  1.002840  140.0367   38.3676  166.0279  20140315   2.0  4.0  C/2006 S3 (LONEOS)                                       MPEC 2014-E86
    PK07C010  2013 11 16.2108  2.194576  0.388335  100.5793   52.8752    7.8754  20140315  15.0  4.0  P/2007 C1 (Christensen)                                  MPC 59597
    CK07M010  2008 08 12.1873  7.466432  0.996783   52.7100  326.9178  139.6763  20140315   6.0  4.0  C/2007 M1 (McNaught)                                     MPEC 2014-E86
    CK07M010  2008 08 12.1873  7.466432  0.996783   52.7100  326.9178  139.6763  20140315   6.0  4.0  C/2007 M1 (McNaught)                                     MPEC 2014-E86
    PK07R010  2007 08 21.8876  4.379240  0.276368  175.6411  181.6650    7.8680  20140315   8.0  4.0  P/2007 R1 (Larson)                                       MPC 75514
    PK07R020  2014 01 15.5715  1.466776  0.573527  353.2087    8.7714    1.4271  20140315  17.0  4.0  P/2007 R2 (Gibbs)                                        MPC 75708
    PK08C94L  2021 09 23.5912  5.400878  0.121585   81.0500   33.4061    8.3527  20140315   8.0  4.0  P/2008 CL94 (Lemmon)                                     MPC 75708
    CK08F75K  2010 09 28.8557  4.514524  1.000436   80.4733  218.2658   61.1996  20140315   5.0  4.0  C/2008 FK75 (Lemmon-Siding Spring)                       MPC 85830
    PK08J020  2014 08 29.9473  2.346286  0.318678  132.1907   97.7087   10.3252  20140315  15.0  4.0  P/2008 J2 (Beshore)                                      MPEC 2014-E68
    PK08O020  2018 10 24.2108  3.813124  0.150932   27.4067  325.8620    9.5143  20140315   9.0  4.0  P/2008 O2 (McNaught)                                     MPC 75709
    CK08S030  2011 06 10.3414  8.020495  1.003058   40.1501   54.9705  162.7064  20140315   4.0  4.0  C/2008 S3 (Boattini)                                     MPC 85830
    PK08T010  2016 11 19.2150  3.060649  0.278952   35.9915  291.7481    2.0790  20140315  11.0  4.0  P/2008 T1 (Boattini)                                     MPC 82717
    CK09F040  2011 12 31.7877  5.456156  0.999522  260.4040   53.5753   79.3568  20140315   3.0  4.0  C/2009 F4 (McNaught)                                     MPEC 2014-E68
    CK09P010  2011 12 23.3360  1.551105  1.000321   90.7251  325.9962  106.1676  20140315   4.0  4.0  C/2009 P1 (Garradd)                                      MPEC 2014-E18
    CK09S030  2011 12 12.4201  6.478095  1.000548  129.8839  225.1335   60.3911  20140315   6.5  4.0  C/2009 S3 (Lemmon)                                       MPC 87062
    PK10A020  2013 05 22.1680  2.003746  0.124928  132.7945  320.2311    5.2567  20140315  15.5  4.0  P/2010 A2 (LINEAR)                                       MPC 86226
    PK10H020  2017 09 17.5610  3.100293  0.193146  129.6228   64.3019   14.2586  20140315   6.0  4.0  P/2010 H2 (Vales)                                        MPC 72851
    PK10H050  2010 04  8.1136  6.017308  0.156035  174.4310   24.8500   14.0838  20140315  13.0  2.0  P/2010 H5 (Scotti)                                       MPC 74637
    PK10J050  2018 02 19.2945  3.745455  0.086900  149.3749   65.6680    7.3568  20140315  10.0  4.0  P/2010 J5 (McNaught)                                     MPC 76025
    CK10L030  2010 11 11.5017  9.884210  1.003423  121.7996   38.2835  102.5931  20140315   4.5  4.0  C/2010 L3 (Catalina)                                     MPC 83518
    CK10R010  2012 05 18.1606  5.620631  1.002062  114.4608  343.6747  156.9196  20140315   6.0  4.0  C/2010 R1 (LINEAR)                                       MPEC 2014-E68
    PK10R020  2015 11 30.6534  2.618794  0.153705   58.7447  270.6512   21.4201  20140315  13.0  4.0  P/2010 R2 (La Sagra)                                     MPC 84021
    CK10S010  2013 05 20.2578  5.899707  1.002688  118.6082   93.4316  125.3346  20140315   3.5  4.0  C/2010 S1 (LINEAR)                                       MPEC 2014-E68
    PK10T20O  2009 03  5.1936  5.408123  0.061577  271.7378   43.5957    2.4883  20140315   9.0  4.0  P/2010 TO20 (LINEAR-Grauer)                              MPC 81468
    CK10U030  2019 02 23.6289  8.454314  1.003417   87.9519   43.0381   55.4582  20140315   1.0  4.0  C/2010 U3 (Boattini)                                     MPEC 2014-E18
    PK10U55H  2011 05 11.1605  2.772763  0.575929  221.8368  235.2564    8.6632  20140315  11.0  4.0  P/2010 UH55 (Spacewatch)                                 MPC 79021
    PK10V010  2016 03 10.2041  1.573954  0.488942  152.3606    3.7768    9.3850  20140315   8.0  4.0  P/2010 V1 (Ikeya-Murakami)                               MPC 84315
    PK11C020  2012 01  8.5729  5.388168  0.270796  160.6129   12.1782   10.8967  20140315   9.0  4.0  P/2011 C2 (Gibbs)                                        MPC 84021
    PK11C42R  2011 11 29.3473  2.525946  0.279933  173.3251   58.7303    8.4604  20140315  13.0  2.0  P/2011 CR42 (Catalina)                                   MPC 86639
    CK11F010  2013 01  7.9419  1.818824  0.999537  192.5247   85.1124   56.6138  20140315   5.0  4.0  C/2011 F1 (LINEAR)                                       MPEC 2014-E18
    CK11J020  2013 12 25.3257  3.443439  1.000504   85.3006  163.9479  122.7989  20140315   6.0  4.0  C/2011 J2 (LINEAR)                                       MPEC 2014-E86
    CK11J020  2013 12 25.3257  3.443439  1.000504   85.3006  163.9479  122.7989  20140315   6.0  4.0  C/2011 J2 (LINEAR)                                       MPEC 2014-E86
    PK11J15B  2012 01 19.6084  5.016225  0.317404  110.7472  153.7337   19.1536  20140315   9.0  4.0  P/2011 JB15 (Spacewatch-Boattini)                        MPC 82317
    CK11K36P  2016 05 27.2486  4.881330  0.873013  180.6380  173.4208   18.9823  20140315   4.5  4.0  C/2011 KP36 (Spacewatch)                                 MPEC 2014-E68
    CK11L040  2013 03 10.1545  0.301833  1.000034  333.6665   65.6825   84.1976  20140315   5.5  4.0  C/2011 L4 (PANSTARRS)                                    MPEC 2014-E86
    CK11L040  2013 03 10.1545  0.301833  1.000034  333.6665   65.6825   84.1976  20140315   5.5  4.0  C/2011 L4 (PANSTARRS)                                    MPEC 2014-E86
    CK11O010  2012 08 18.3187  3.891021  0.995604  232.3770   89.8172   76.5005  20140315   7.0  4.0  C/2011 O1 (LINEAR)                                       MPEC 2014-E18
    CK11R010  2012 10 19.5538  2.078911  1.000532  308.8285  221.3997  116.1852  20140315   6.5  4.0  C/2011 R1 (McNaught)                                     MPEC 2014-E18
    PK11R030  2012 03 29.7004  3.554529  0.263491  224.7298  190.4022   19.2296  20140315  11.0  4.0  P/2011 R3 (Novichonok-Gerke)                             MPEC 2014-E68
